{
    "links": {
        "self": "http://www.neowsapp.com/rest/v1/neo/3707692?api_key=iIulBulltgU6a56xZRHN4H3l9WmuAYTsLGpBGhQ2"
    },
    "id": "3707692",
    "neo_reference_id": "3707692",
    "name": "(2015 BJ311)",
    "designation": "2015 BJ311",
    "nasa_jpl_url": "http://ssd.jpl.nasa.gov/sbdb.cgi?sstr=3707692",
    "absolute_magnitude_h": 24.5,
    "estimated_diameter": {
        "kilometers": {
            "estimated_diameter_min": 0.0334622374,
            "estimated_diameter_max": 0.0748238376
        },
        "meters": {
            "estimated_diameter_min": 33.4622374455,
            "estimated_diameter_max": 74.8238376074
        },
        "miles": {
            "estimated_diameter_min": 0.0207924639,
            "estimated_diameter_max": 0.0464933628
        },
        "feet": {
            "estimated_diameter_min": 109.7842471007,
            "estimated_diameter_max": 245.4850393757
        }
    },
    "is_potentially_hazardous_asteroid": false,
    "close_approach_data": [
        {
            "close_approach_date": "2015-01-25",
            "close_approach_date_full": "2015-Jan-25 08:44",
            "epoch_date_close_approach": 1422175440000,
            "relative_velocity": {
                "kilometers_per_second": "6.2478074871",
                "kilometers_per_hour": "22492.1069534087",
                "miles_per_hour": "13975.7205678"
            },
            "miss_distance": {
                "astronomical": "0.0893384357",
                "lunar": "34.7526514873",
                "kilometers": "13364839.689851959",
                "miles": "8304526.2972726742"
            },
            "orbiting_body": "Earth"
        }
    ],
    "orbital_data": {
        "orbit_id": "8",
        "orbit_determination_date": "2017-04-06 08:36:08",
        "first_observation_date": "2015-01-20",
        "last_observation_date": "2015-02-17",
        "data_arc_in_days": 28,
        "observations_used": 30,
        "orbit_uncertainty": "7",
        "minimum_orbit_intersection": ".0827352",
        "jupiter_tisserand_invariant": "3.991",
        "epoch_osculation": "2459000.5",
        "eccentricity": ".3987350012913242",
        "semi_major_axis": "1.774873094382144",
        "inclination": "8.606126679013236",
        "ascending_node_longitude": "309.310403558312",
        "orbital_period": "863.6730850463094",
        "perihelion_distance": "1.067169068801743",
        "perihelion_argument": "176.0945501525202",
        "aphelion_distance": "2.482577119962545",
        "perihelion_time": "2458773.576500540355",
        "mean_anomaly": "94.58724744339125",
        "mean_motion": ".416824382087462",
        "equinox": "J2000",
        "orbit_class": {
            "orbit_class_type": "AMO",
            "orbit_class_description": "Near-Earth asteroid orbits similar to that of 1221 Amor",
            "orbit_class_range": "1.017 AU < q (perihelion) < 1.3 AU"
        }
    },
    "is_sentry_object": false
}